{"type": "FeatureCollection", "features": [ {"type": "Feature", "properties": {"norad_id": 37550, "name": "IRIDIUM 33 DEB", "group": "iridium-33-debris", "lat": 72.7785305870957, "lon": -163.72769607178213, "alt_km": 660.4664154453412, "timestamp": "2025-12-03T06:58:43.627376+00:00", "meta": {"OBJECT_NAME": "IRIDIUM 33 DEB", "OBJECT_ID": "1997-051XK", "EPOCH": "2025-12-01T10:17:32.492256", "MEAN_MOTION": 14.66958093, "ECCENTRICITY": 0.00051706, "INCLINATION": 86.3787, "RA_OF_ASC_NODE": 28.8861, "ARG_OF_PERICENTER": 137.4218, "MEAN_ANOMALY": 222.7397, "EPHEMERIS_TYPE": 0, "CLASSIFICATION_TYPE": "U", "NORAD_CAT_ID": 37550, "ELEMENT_SET_NO": 999, "REV_AT_EPOCH": 86167, "BSTAR": 0.0016356222, "MEAN_MOTION_DOT": 9.181e-05, "MEAN_MOTION_DDOT": 0}, "tle": {"line1": "1 37550U 97051XK  25335.42884829  .00009181  00000+0  16356-2 0  9996", "line2": "2 37550  86.3787  28.8861 0005170 137.4218 222.7397 14.66958093861674"}}, "geometry": {"type": "Point", "coordinates": [-163.72769607178213, 72.7785305870957]}}, {"type": "Feature", "properties": {"norad_id": 37562, "name": "IRIDIUM 33 DEB", "group": "iridium-33-debris", "lat": -40.98161056203433, "lon": 44.56383224372464, "alt_km": 730.4815703452223, "timestamp": "2025-12-03T06:58:43.627387+00:00", "meta": {"OBJECT_NAME": "IRIDIUM 33 DEB", "OBJECT_ID": "1997-051XX", "EPOCH": "2025-12-02T11:38:58.279200", "MEAN_MOTION": 14.56310782, "ECCENTRICITY": 0.00264774, "INCLINATION": 86.3757, "RA_OF_ASC_NODE": 48.0711, "ARG_OF_PERICENTER": 140.1139, "MEAN_ANOMALY": 279.2058, "EPHEMERIS_TYPE": 0, "CLASSIFICATION_TYPE": "U", "NORAD_CAT_ID": 37562, "ELEMENT_SET_NO": 999, "REV_AT_EPOCH": 86179, "BSTAR": 0.0014715729, "MEAN_MOTION_DOT": 6.569e-05, "MEAN_MOTION_DDOT": 0}, "tle": {"line1": "1 37562U 97051XX  25336.48539675  .00006569  00000+0  14716-2 0  9997", "line2": "2 37562  86.3757  48.0711 0026477 140.1139 279.2058 14.56310782861798"}}, "geometry": {"type": "Point", "coordinates": [44.56383224372464, -40.98161056203433]}}, {"type": "Feature", "properties": {"norad_id": 37565, "name": "IRIDIUM 33 DEB", "group": "iridium-33-debris", "lat": -85.19352917624354, "lon": -116.92491627400987, "alt_km": 738.162912335376, "timestamp": "2025-12-03T06:58:43.627397+00:00", "meta": {"OBJECT_NAME": "IRIDIUM 33 DEB", "OBJECT_ID": "1997-051YA", "EPOCH": "2025-12-02T19:49:35.026176", "MEAN_MOTION": 14.51449294, "ECCENTRICITY": 0.0015159, "INCLINATION": 86.3504, "RA_OF_ASC_NODE": 13.8967, "ARG_OF_PERICENTER": 112.8833, "MEAN_ANOMALY": 247.3974, "EPHEMERIS_TYPE": 0, "CLASSIFICATION_TYPE": "U", "NORAD_CAT_ID": 37565, "ELEMENT_SET_NO": 999, "REV_AT_EPOCH": 65693, "BSTAR": 0.00072957, "MEAN_MOTION_DOT": 2.936e-05, "MEAN_MOTION_DDOT": 0}, "tle": {"line1": "1 37565U 97051YA  25336.82609984  .00002936  00000+0  72957-3 0  9995", "line2": "2 37565  86.3504  13.8967 0015159 112.8833 247.3974 14.51449294656933"}}, "geometry": {"type": "Point", "coordinates": [-116.92491627400987, -85.19352917624354]}}, {"type": "Feature", "properties": {"norad_id": 38017, "name": "IRIDIUM 33 DEB", "group": "iridium-33-debris", "lat": 86.01090910945231, "lon": -123.19702762725139, "alt_km": 678.1799756766623, "timestamp": "2025-12-03T06:58:43.627408+00:00", "meta": {"OBJECT_NAME": "IRIDIUM 33 DEB", "OBJECT_ID": "1997-051YD", "EPOCH": "2025-12-01T06:29:11.103360", "MEAN_MOTION": 14.48304289, "ECCENTRICITY": 0.009214, "INCLINATION": 86.3439, "RA_OF_ASC_NODE": 171.2047, "ARG_OF_PERICENTER": 141.8586, "MEAN_ANOMALY": 218.9187, "EPHEMERIS_TYPE": 0, "CLASSIFICATION_TYPE": "U", "NORAD_CAT_ID": 38017, "ELEMENT_SET_NO": 999, "REV_AT_EPOCH": 61236, "BSTAR": 0.0066574, "MEAN_MOTION_DOT": 0.00026341, "MEAN_MOTION_DDOT": 0}, "tle": {"line1": "1 38017U 97051YD  25335.27026740  .00026341  00000+0  66574-2 0  9992", "line2": "2 38017  86.3439 171.2047 0092140 141.8586 218.9187 14.48304289612362"}}, "geometry": {"type": "Point", "coordinates": [-123.19702762725139, 86.01090910945231]}}, {"type": "Feature", "properties": {"norad_id": 38022, "name": "IRIDIUM 33 DEB", "group": "iridium-33-debris", "lat": 53.25322888823205, "lon": -164.43019273923105, "alt_km": 726.452025747808, "timestamp": "2025-12-03T06:58:43.627418+00:00", "meta": {"OBJECT_NAME": "IRIDIUM 33 DEB", "OBJECT_ID": "1997-051YJ", "EPOCH": "2025-12-01T09:24:18.819072", "MEAN_MOTION": 14.41139287, "ECCENTRICITY": 0.00471789, "INCLINATION": 86.2706, "RA_OF_ASC_NODE": 21.4121, "ARG_OF_PERICENTER": 86.4447, "MEAN_ANOMALY": 274.2147, "EPHEMERIS_TYPE": 0, "CLASSIFICATION_TYPE": "U", "NORAD_CAT_ID": 38022, "ELEMENT_SET_NO": 999, "REV_AT_EPOCH": 69030, "BSTAR": 0.0011656877, "MEAN_MOTION_DOT": 3.826e-05, "MEAN_MOTION_DDOT": 0}, "tle": {"line1": "1 38022U 97051YJ  25335.39188448  .00003826  00000+0  11657-2 0  9990", "line2": "2 38022  86.2706  21.4121 0047178  86.4447 274.2147 14.41139287690302"}}, "geometry": {"type": "Point", "coordinates": [-164.43019273923105, 53.25322888823205]}}, {"type": "Feature", "properties": {"norad_id": 38028, "name": "IRIDIUM 33 DEB", "group": "iridium-33-debris", "lat": 78.40442143996677, "lon": 166.1226885990573, "alt_km": 717.4587539248205, "timestamp": "2025-12-03T06:58:43.627428+00:00", "meta": {"OBJECT_NAME": "IRIDIUM 33 DEB", "OBJECT_ID": "1997-051YQ", "EPOCH": "2025-12-02T08:55:29.085888", "MEAN_MOTION": 14.46151271, "ECCENTRICITY": 0.00294346, "INCLINATION": 86.325, "RA_OF_ASC_NODE": 4.7758, "ARG_OF_PERICENTER": 153.8613, "MEAN_ANOMALY": 206.4083, "EPHEMERIS_TYPE": 0, "CLASSIFICATION_TYPE": "U", "NORAD_CAT_ID": 38028, "ELEMENT_SET_NO": 999, "REV_AT_EPOCH": 65345, "BSTAR": 0.00044678043, "MEAN_MOTION_DOT": 1.624e-05, "MEAN_MOTION_DDOT": 0}, "tle": {"line1": "1 38028U 97051YQ  25336.37186442  .00001624  00000+0  44678-3 0  9991", "line2": "2 38028  86.3250   4.7758 0029434 153.8613 206.4083 14.46151271653455"}}, "geometry": {"type": "Point", "coordinates": [166.1226885990573, 78.40442143996677]}}, {"type": "Feature", "properties": {"norad_id": 38228, "name": "IRIDIUM 33 DEB", "group": "iridium-33-debris", "lat": -41.66011693171561, "lon": 49.18062920592447, "alt_km": 813.7406435091498, "timestamp": "2025-12-03T06:58:43.627439+00:00", "meta": {"OBJECT_NAME": "IRIDIUM 33 DEB", "OBJECT_ID": "1997-051ZC", "EPOCH": "2025-12-02T12:58:20.281728", "MEAN_MOTION": 14.27241218, "ECCENTRICITY": 0.00633313, "INCLINATION": 86.295, "RA_OF_ASC_NODE": 52.8044, "ARG_OF_PERICENTER": 222.6522, "MEAN_ANOMALY": 202.4325, "EPHEMERIS_TYPE": 0, "CLASSIFICATION_TYPE": "U", "NORAD_CAT_ID": 38228, "ELEMENT_SET_NO": 999, "REV_AT_EPOCH": 84636, "BSTAR": 0.00051297903, "MEAN_MOTION_DOT": 1.299e-05, "MEAN_MOTION_DDOT": 0}, "tle": {"line1": "1 38228U 97051ZC  25336.54051252  .00001299  00000+0  51298-3 0  9996", "line2": "2 38228  86.2950  52.8044 0063331 222.6522 202.4325 14.27241218846362"}}, "geometry": {"type": "Point", "coordinates": [49.18062920592447, -41.66011693171561]}}, {"type": "Feature", "properties": {"norad_id": 38241, "name": "IRIDIUM 33 DEB", "group": "iridium-33-debris", "lat": 22.743822441698153, "lon": -3.6870788504934544, "alt_km": 708.2924215260009, "timestamp": "2025-12-03T06:58:43.627449+00:00", "meta": {"OBJECT_NAME": "IRIDIUM 33 DEB", "OBJECT_ID": "1997-051ZR", "EPOCH": "2025-12-01T08:39:05.059872", "MEAN_MOTION": 14.54752437, "ECCENTRICITY": 0.00056988, "INCLINATION": 86.3235, "RA_OF_ASC_NODE": 355.6193, "ARG_OF_PERICENTER": 96.8352, "MEAN_ANOMALY": 263.3504, "EPHEMERIS_TYPE": 0, "CLASSIFICATION_TYPE": "U", "NORAD_CAT_ID": 38241, "ELEMENT_SET_NO": 999, "REV_AT_EPOCH": 60035, "BSTAR": 0.00088099609, "MEAN_MOTION_DOT": 3.793e-05, "MEAN_MOTION_DDOT": 0}, "tle": {"line1": "1 38241U 97051ZR  25335.36047523  .00003793  00000+0  88100-3 0  9999", "line2": "2 38241  86.3235 355.6193 0005698  96.8352 263.3504 14.54752437600359"}}, "geometry": {"type": "Point", "coordinates": [-3.6870788504934544, 22.743822441698153]}}, {"type": "Feature", "properties": {"norad_id": 38474, "name": "IRIDIUM 33 DEB", "group": "iridium-33-debris", "lat": -62.377127684364936, "lon": 7.159925426366725, "alt_km": 750.203955828134, "timestamp": "2025-12-03T06:58:43.627459+00:00", "meta": {"OBJECT_NAME": "IRIDIUM 33 DEB", "OBJECT_ID": "1997-051AAB", "EPOCH": "2025-11-29T08:54:08.657856", "MEAN_MOTION": 14.50603208, "ECCENTRICITY": 0.002717, "INCLINATION": 86.3442, "RA_OF_ASC_NODE": 15.8845, "ARG_OF_PERICENTER": 130.9322, "MEAN_ANOMALY": 229.4241, "EPHEMERIS_TYPE": 0, "CLASSIFICATION_TYPE": "U", "NORAD_CAT_ID": 38474, "ELEMENT_SET_NO": 999, "REV_AT_EPOCH": 65124, "BSTAR": 0.00047302373, "MEAN_MOTION_DOT": 1.884e-05, "MEAN_MOTION_DDOT": 0}, "tle": {"line1": "1 38474U 97051AAB 25333.37093354  .00001884  00000+0  47302-3 0  9997", "line2": "2 38474  86.3442  15.8845 0027170 130.9322 229.4241 14.50603208651244"}}, "geometry": {"type": "Point", "coordinates": [7.159925426366725, -62.377127684364936]}}, {"type": "Feature", "properties": {"norad_id": 39777, "name": "IRIDIUM 33 DEB", "group": "iridium-33-debris", "lat": 26.700137089935, "lon": -2.4104719506989434, "alt_km": 687.6919905461245, "timestamp": "2025-12-03T06:58:43.627469+00:00", "meta": {"OBJECT_NAME": "IRIDIUM 33 DEB", "OBJECT_ID": "1997-051AAJ", "EPOCH": "2025-12-01T13:02:19.201056", "MEAN_MOTION": 14.56024465, "ECCENTRICITY": 0.00595889, "INCLINATION": 85.9622, "RA_OF_ASC_NODE": 180.4732, "ARG_OF_PERICENTER": 225.0821, "MEAN_ANOMALY": 134.5543, "EPHEMERIS_TYPE": 0, "CLASSIFICATION_TYPE": "U", "NORAD_CAT_ID": 39777, "ELEMENT_SET_NO": 999, "REV_AT_EPOCH": 60022, "BSTAR": 0.0022774227, "MEAN_MOTION_DOT": 0.00010294, "MEAN_MOTION_DDOT": 0}, "tle": {"line1": "1 39777U 97051AAJ 25335.54327779  .00010294  00000+0  22774-2 0  9996", "line2": "2 39777  85.9622 180.4732 0059588 225.0821 134.5543 14.56024465600229"}}, "geometry": {"type": "Point", "coordinates": [-2.4104719506989434, 26.700137089935]}}]}